[{"OBJECT_NAME":"STARLINK-32739","OBJECT_ID":"2025-003M","EPOCH":"2026-03-09T23:07:13.107360","MEAN_MOTION":15.27603988,"ECCENTRICITY":0.00021271,"INCLINATION":43,"RA_OF_ASC_NODE":287.4049,"ARG_OF_PERICENTER":255.3068,"MEAN_ANOMALY":104.7548,"EPHEMERIS_TYPE":0,"CLASSIFICATION_TYPE":"U","NORAD_CAT_ID":62498,"ELEMENT_SET_NO":999,"REV_AT_EPOCH":6666,"BSTAR":0.0013963144,"MEAN_MOTION_DOT":0.00038391,"MEAN_MOTION_DDOT":0},{"OBJECT_NAME":"TROLL","OBJECT_ID":"2025-009BB","EPOCH":"2026-03-09T05:24:19.835712","MEAN_MOTION":15.28164315,"ECCENTRICITY":0.00018165,"INCLINATION":97.3932,"RA_OF_ASC_NODE":150.7169,"ARG_OF_PERICENTER":59.185,"MEAN_ANOMALY":300.9568,"EPHEMERIS_TYPE":0,"CLASSIFICATION_TYPE":"U","NORAD_CAT_ID":62658,"ELEMENT_SET_NO":999,"REV_AT_EPOCH":11817,"BSTAR":0.00048220305,"MEAN_MOTION_DOT":0.00013174,"MEAN_MOTION_DDOT":0}]
